{"type": "FeatureCollection", "features": [{"type": "Feature", "properties": {"norad_id": 50032, "name": "COSMOS 1408 DEB", "group": "cosmos-1408-debris", "lat": 78.88437150355207, "lon": -175.89800684759626, "alt_km": 416.8255625492593, "timestamp": "2025-12-25T03:55:56.628321+00:00", "meta": {"OBJECT_NAME": "COSMOS 1408 DEB", "OBJECT_ID": "1982-092RU", "EPOCH": "2025-12-24T15:04:46.513632", "MEAN_MOTION": 15.4580971, "ECCENTRICITY": 0.0016466, "INCLINATION": 82.5629, "RA_OF_ASC_NODE": 46.3227, "ARG_OF_PERICENTER": 164.7636, "MEAN_ANOMALY": 195.4112, "EPHEMERIS_TYPE": 0, "CLASSIFICATION_TYPE": "U", "NORAD_CAT_ID": 50032, "ELEMENT_SET_NO": 999, "REV_AT_EPOCH": 22787, "BSTAR": 0.0001071, "MEAN_MOTION_DOT": 5.256e-05, "MEAN_MOTION_DDOT": 0}, "tle": {"line1": "1 50032U 82092RU  25358.62831613  .00005256  00000+0  10710-3 0  9993", "line2": "2 50032  82.5629  46.3227 0016466 164.7636 195.4112 15.45809710227873"}}, "geometry": {"type": "Point", "coordinates": [-175.89800684759626, 78.88437150355207]}}, {"type": "Feature", "properties": {"norad_id": 50058, "name": "COSMOS 1408 DEB", "group": "cosmos-1408-debris", "lat": 55.18346387457088, "lon": 67.08467777022408, "alt_km": 357.80198444681446, "timestamp": "2025-12-25T03:55:56.628342+00:00", "meta": {"OBJECT_NAME": "COSMOS 1408 DEB", "OBJECT_ID": "1982-092SW", "EPOCH": "2025-12-24T15:25:02.006976", "MEAN_MOTION": 15.6481298, "ECCENTRICITY": 0.0015834, "INCLINATION": 82.6118, "RA_OF_ASC_NODE": 56.8774, "ARG_OF_PERICENTER": 58.7344, "MEAN_ANOMALY": 301.5464, "EPHEMERIS_TYPE": 0, "CLASSIFICATION_TYPE": "U", "NORAD_CAT_ID": 50058, "ELEMENT_SET_NO": 999, "REV_AT_EPOCH": 22990, "BSTAR": 0.00034025, "MEAN_MOTION_DOT": 0.00033436, "MEAN_MOTION_DDOT": 0}, "tle": {"line1": "1 50058U 82092SW  25358.64238434  .00033436  00000+0  34025-3 0  9991", "line2": "2 50058  82.6118  56.8774 0015834  58.7344 301.5464 15.64812980229904"}}, "geometry": {"type": "Point", "coordinates": [67.08467777022408, 55.18346387457088]}}, {"type": "Feature", "properties": {"norad_id": 50404, "name": "COSMOS 1408 DEB", "group": "cosmos-1408-debris", "lat": 73.7718488456917, "lon": -5.793123110280273, "alt_km": 439.5091248010958, "timestamp": "2025-12-25T03:55:56.628356+00:00", "meta": {"OBJECT_NAME": "COSMOS 1408 DEB", "OBJECT_ID": "1982-092ADS", "EPOCH": "2025-12-24T06:52:22.036224", "MEAN_MOTION": 15.15593278, "ECCENTRICITY": 0.01671175, "INCLINATION": 82.2021, "RA_OF_ASC_NODE": 203.1965, "ARG_OF_PERICENTER": 159.1978, "MEAN_ANOMALY": 201.6165, "EPHEMERIS_TYPE": 0, "CLASSIFICATION_TYPE": "U", "NORAD_CAT_ID": 50404, "ELEMENT_SET_NO": 999, "REV_AT_EPOCH": 21368, "BSTAR": 0.0036317583, "MEAN_MOTION_DOT": 0.00099565, "MEAN_MOTION_DDOT": 0}, "tle": {"line1": "1 50404U 82092ADS 25358.28636616  .00099565  00000+0  36318-2 0  9991", "line2": "2 50404  82.2021 203.1965 0167117 159.1978 201.6165 15.15593278213686"}}, "geometry": {"type": "Point", "coordinates": [-5.793123110280273, 73.7718488456917]}}, {"type": "Feature", "properties": {"norad_id": 50621, "name": "COSMOS 1408 DEB", "group": "cosmos-1408-debris", "lat": 79.42398487714145, "lon": -163.11612150785967, "alt_km": 368.7477649989769, "timestamp": "2025-12-25T03:55:56.628367+00:00", "meta": {"OBJECT_NAME": "COSMOS 1408 DEB", "OBJECT_ID": "1982-092ALR", "EPOCH": "2025-12-24T04:23:00.556512", "MEAN_MOTION": 15.57235404, "ECCENTRICITY": 0.00291233, "INCLINATION": 82.5683, "RA_OF_ASC_NODE": 62.263, "ARG_OF_PERICENTER": 111.4174, "MEAN_ANOMALY": 249.0193, "EPHEMERIS_TYPE": 0, "CLASSIFICATION_TYPE": "U", "NORAD_CAT_ID": 50621, "ELEMENT_SET_NO": 999, "REV_AT_EPOCH": 22428, "BSTAR": 0.00037737815, "MEAN_MOTION_DOT": 0.00028099, "MEAN_MOTION_DDOT": 0}, "tle": {"line1": "1 50621U 82092ALR 25358.18264533  .00028099  00000+0  37738-3 0  9998", "line2": "2 50621  82.5683  62.2630 0029123 111.4174 249.0193 15.57235404224285"}}, "geometry": {"type": "Point", "coordinates": [-163.11612150785967, 79.42398487714145]}}]}